{
  "norad_id": 60352,
  "name": "STRIX-4",
  "history": [
    {
      "epoch": "2026-03-28T22:04:59.671776",
      "apogee_km": 487.3400116502644,
      "perigee_km": 465.60541517098227,
      "latitude_deg": -31.30129622315,
      "longitude_deg": -56.46703135990538,
      "semi_major_axis_km": 6854.609713410623,
      "eccentricity": 0.0015854,
      "inclination_deg": 43.0171,
      "raan_deg": 20.7323,
      "arg_perigee_deg": 140.3958,
      "mean_anomaly_deg": 219.8056,
      "mean_motion_rev_day": 15.29778891
    },
    {
      "epoch": "2026-03-29T04:21:04.453056",
      "apogee_km": 487.29607434258014,
      "perigee_km": 465.54108584248297,
      "latitude_deg": -9.479291557193578,
      "longitude_deg": -31.39505215990357,
      "semi_major_axis_km": 6854.555580092531,
      "eccentricity": 0.0015869,
      "inclination_deg": 43.0172,
      "raan_deg": 19.2528,
      "arg_perigee_deg": 142.1454,
      "mean_anomaly_deg": 218.0518,
      "mean_motion_rev_day": 15.29797013
    }
  ]
}